24793,IRIDIUM 7,1997,100.28,-1.0,-,86.4,Inactive,0,LEO,USA,USA,Unknown,Unknown,Unknown,1 24793U 97020B   25185.45920924  .00000303  00000+0  97831-4 0  9996,2 24793  86.3987 169.6776 0002548  84.9774 275.1714 14.35948409474377,14.35948409,0.0002548,LEO
24795,IRIDIUM 5,1997,96.36,-1.0,-,86.39,Inactive,0,LEO,USA,USA,Unknown,Unknown,Unknown,1 24795U 97020D   25185.18357924  .00004311  00000+0  35057-3 0  9996,2 24795  86.3876  75.8947 0111145  77.6194 283.7449 14.94469188488005,14.94469188,0.0111145,LEO
24796,IRIDIUM 4,1997,100.22,-1.0,-,86.4,Inactive,0,LEO,USA,USA,Unknown,Unknown,Unknown,1 24796U 97020E   25185.84965997  .00000258  00000+0  80620-4 0  9998,2 24796  86.3984 166.3830 0002423  89.3601 270.7874 14.36850940475037,14.3685094,0.0002423,LEO
24836,IRIDIUM 914,1997,99.94,-1.0,-,86.4,Inactive,0,LEO,Kazakhstan,USA,Unknown,Unknown,Unknown,1 24836U 97030A   25185.45610692  .00000349  00000+0  10271-3 0  9995,2 24836  86.3961 175.0924 0003139 118.0517 242.1000 14.40882542609614,14.40882542,0.0003139,LEO
24841,IRIDIUM 16,1997,100.09,-1.0,-,86.4,Inactive,0,LEO,Kazakhstan,USA,Unknown,Unknown,Unknown,1 24841U 97030F   25185.58100841  .00000280  00000+0  84914-4 0  9995,2 24841  86.4046 197.9704 0003452  49.9516 310.1984 14.38723536469506,14.38723536,0.0003452,LEO
24842,IRIDIUM 911,1997,99.47,-1.0,-,86.45,Inactive,0,LEO,Kazakhstan,USA,Unknown,Unknown,Unknown,1 24842U 97030G   25185.53525535  .00000417  00000+0  10734-3 0  9992,2 24842  86.4470 196.7410 0015830  46.5157 313.7360 14.47652668477598,14.47652668,0.001583,LEO
24870,IRIDIUM 17,1997,100.15,-1.0,-,86.4,Inactive,0,LEO,USA,USA,Unknown,Unknown,Unknown,1 24870U 97034B   25185.57896379  .00000269  00000+0  82688-4 0  9991,2 24870  86.3951 227.4396 0001713  46.5964 313.5376 14.37838414466089,14.37838414,0.0001713,LEO
24871,IRIDIUM 920,1997,99.89,-1.0,-,86.4,Inactive,0,LEO,USA,USA,Unknown,Unknown,Unknown,1 24871U 97034C   25185.57709539  .00000317  00000+0  91385-4 0  9991,2 24871  86.3980 206.6368 0012716  34.1485 326.0530 14.41543926469086,14.41543926,0.0012716,LEO
